{"type": "FeatureCollection", "features": [ {"type": "Feature", "properties": {"norad_id": 41469, "name": "IRNSS-1G", "group": "gnss", "lat": 4.426646109947071, "lon": 171.62672425835342, "alt_km": 35792.70175804758, "timestamp": "2025-12-09T21:34:11.649841+00:00", "meta": {"OBJECT_NAME": "IRNSS-1G", "OBJECT_ID": "2016-027A", "EPOCH": "2025-12-09T10:57:51.668064", "MEAN_MOTION": 1.00250945, "ECCENTRICITY": 0.00046366, "INCLINATION": 4.7249, "RA_OF_ASC_NODE": 102.1843, "ARG_OF_PERICENTER": 335.7018, "MEAN_ANOMALY": 294.2623, "EPHEMERIS_TYPE": 0, "CLASSIFICATION_TYPE": "U", "NORAD_CAT_ID": 41469, "ELEMENT_SET_NO": 999, "REV_AT_EPOCH": 3527, "BSTAR": 0, "MEAN_MOTION_DOT": -3.35e-06, "MEAN_MOTION_DDOT": 0}, "tle": {"line1": "1 41469U 16027A   25343.45684801 -.00000335  00000+0  00000+0 0  9993", "line2": "2 41469   4.7249 102.1843 0004636 335.7018 294.2623  1.00250945 35278"}}, "geometry": {"type": "Point", "coordinates": [171.62672425835342, 4.426646109947071]}}, {"type": "Feature", "properties": {"norad_id": 41549, "name": "GSAT0211 (GALILEO 14)", "group": "gnss", "lat": -8.905561170993119, "lon": -139.3509501441494, "alt_km": 23212.960155824458, "timestamp": "2025-12-09T21:34:11.649852+00:00", "meta": {"OBJECT_NAME": "GSAT0211 (GALILEO 14)", "OBJECT_ID": "2016-030A", "EPOCH": "2025-12-07T13:40:58.264320", "MEAN_MOTION": 1.70472997, "ECCENTRICITY": 0.00040128, "INCLINATION": 55.154, "RA_OF_ASC_NODE": 226.9659, "ARG_OF_PERICENTER": 14.4678, "MEAN_ANOMALY": 345.6377, "EPHEMERIS_TYPE": 0, "CLASSIFICATION_TYPE": "U", "NORAD_CAT_ID": 41549, "ELEMENT_SET_NO": 999, "REV_AT_EPOCH": 5940, "BSTAR": 0, "MEAN_MOTION_DOT": 2.3e-07, "MEAN_MOTION_DDOT": 0}, "tle": {"line1": "1 41549U 16030A   25341.57011880  .00000023  00000+0  00000+0 0  9991", "line2": "2 41549  55.1540 226.9659 0004012  14.4678 345.6377  1.70472997 59400"}}, "geometry": {"type": "Point", "coordinates": [-139.3509501441494, -8.905561170993119]}}, {"type": "Feature", "properties": {"norad_id": 41550, "name": "GSAT0210 (GALILEO 13)", "group": "gnss", "lat": -9.162206888349285, "lon": 53.35521297431115, "alt_km": 23221.25044665224, "timestamp": "2025-12-09T21:34:11.649863+00:00", "meta": {"OBJECT_NAME": "GSAT0210 (GALILEO 13)", "OBJECT_ID": "2016-030B", "EPOCH": "2025-12-09T00:00:58.854816", "MEAN_MOTION": 1.70473614, "ECCENTRICITY": 0.0001366, "INCLINATION": 55.1527, "RA_OF_ASC_NODE": 226.9246, "ARG_OF_PERICENTER": 244.5421, "MEAN_ANOMALY": 115.531, "EPHEMERIS_TYPE": 0, "CLASSIFICATION_TYPE": "U", "NORAD_CAT_ID": 41550, "ELEMENT_SET_NO": 999, "REV_AT_EPOCH": 5942, "BSTAR": 0, "MEAN_MOTION_DOT": 1.3e-07, "MEAN_MOTION_DDOT": 0}, "tle": {"line1": "1 41550U 16030B   25343.00068119  .00000013  00000+0  00000+0 0  9999", "line2": "2 41550  55.1527 226.9246 0001366 244.5421 115.5310  1.70473614 59420"}}, "geometry": {"type": "Point", "coordinates": [53.35521297431115, -9.162206888349285]}}, {"type": "Feature", "properties": {"norad_id": 41586, "name": "BEIDOU-2 G7 (C03)", "group": "gnss", "lat": 1.7482477244371941, "lon": 152.93634004549799, "alt_km": 35784.85256921274, "timestamp": "2025-12-09T21:34:11.649875+00:00", "meta": {"OBJECT_NAME": "BEIDOU-2 G7 (C03)", "OBJECT_ID": "2016-037A", "EPOCH": "2025-12-09T14:05:57.156576", "MEAN_MOTION": 1.00268504, "ECCENTRICITY": 0.00043487, "INCLINATION": 1.7493, "RA_OF_ASC_NODE": 67.7013, "ARG_OF_PERICENTER": 1.2633, "MEAN_ANOMALY": 331.5617, "EPHEMERIS_TYPE": 0, "CLASSIFICATION_TYPE": "U", "NORAD_CAT_ID": 41586, "ELEMENT_SET_NO": 999, "REV_AT_EPOCH": 498, "BSTAR": 0, "MEAN_MOTION_DOT": -3.51e-06, "MEAN_MOTION_DDOT": 0}, "tle": {"line1": "1 41586U 16037A   25343.58746709 -.00000351  00000+0  00000+0 0  9992", "line2": "2 41586   1.7493  67.7013 0004348   1.2633 331.5617  1.00268504  4981"}}, "geometry": {"type": "Point", "coordinates": [152.93634004549799, 1.7482477244371941]}}, {"type": "Feature", "properties": {"norad_id": 41589, "name": "EUTELSAT 117 WEST B (WAAS/PRN 131)", "group": "gnss", "lat": 0.005488023186937497, "lon": -74.56016346640332, "alt_km": 35786.04710134528, "timestamp": "2025-12-09T21:34:11.649886+00:00", "meta": {"OBJECT_NAME": "EUTELSAT 117 WEST B (WAAS/PRN 131)", "OBJECT_ID": "2016-038B", "EPOCH": "2025-12-09T11:12:09.715968", "MEAN_MOTION": 1.00274699, "ECCENTRICITY": 2.38e-05, "INCLINATION": 0.0078, "RA_OF_ASC_NODE": 125.2291, "ARG_OF_PERICENTER": 302.5176, "MEAN_ANOMALY": 61.7595, "EPHEMERIS_TYPE": 0, "CLASSIFICATION_TYPE": "U", "NORAD_CAT_ID": 41589, "ELEMENT_SET_NO": 999, "REV_AT_EPOCH": 3476, "BSTAR": 0, "MEAN_MOTION_DOT": -1e-07, "MEAN_MOTION_DDOT": 0}, "tle": {"line1": "1 41589U 16038B   25343.46677912 -.00000010  00000+0  00000+0 0  9994", "line2": "2 41589   0.0078 125.2291 0000238 302.5176  61.7595  1.00274699 34764"}}, "geometry": {"type": "Point", "coordinates": [-74.56016346640332, 0.005488023186937497]}}, {"type": "Feature", "properties": {"norad_id": 41859, "name": "GSAT0207 (GALILEO 15)", "group": "gnss", "lat": 16.65585526309141, "lon": 118.23420138331022, "alt_km": 23216.627049707648, "timestamp": "2025-12-09T21:34:11.649900+00:00", "meta": {"OBJECT_NAME": "GSAT0207 (GALILEO 15)", "OBJECT_ID": "2016-069A", "EPOCH": "2025-12-06T22:22:57.829728", "MEAN_MOTION": 1.70474256, "ECCENTRICITY": 0.00021753, "INCLINATION": 55.3787, "RA_OF_ASC_NODE": 106.4111, "ARG_OF_PERICENTER": 324.2379, "MEAN_ANOMALY": 35.7022, "EPHEMERIS_TYPE": 0, "CLASSIFICATION_TYPE": "U", "NORAD_CAT_ID": 41859, "ELEMENT_SET_NO": 999, "REV_AT_EPOCH": 5612, "BSTAR": 0, "MEAN_MOTION_DOT": 7e-08, "MEAN_MOTION_DDOT": 0}, "tle": {"line1": "1 41859U 16069A   25340.93261377  .00000007  00000+0  00000+0 0  9996", "line2": "2 41859  55.3787 106.4111 0002175 324.2379  35.7022  1.70474256 56122"}}, "geometry": {"type": "Point", "coordinates": [118.23420138331022, 16.65585526309141]}}, {"type": "Feature", "properties": {"norad_id": 41860, "name": "GSAT0212 (GALILEO 16)", "group": "gnss", "lat": 50.545419717184686, "lon": -130.67928625249456, "alt_km": 23215.085324347074, "timestamp": "2025-12-09T21:34:11.649911+00:00", "meta": {"OBJECT_NAME": "GSAT0212 (GALILEO 16)", "OBJECT_ID": "2016-069B", "EPOCH": "2025-12-09T03:10:58.927872", "MEAN_MOTION": 1.70474546, "ECCENTRICITY": 0.00021877, "INCLINATION": 55.3778, "RA_OF_ASC_NODE": 106.3455, "ARG_OF_PERICENTER": 30.0277, "MEAN_ANOMALY": 329.9496, "EPHEMERIS_TYPE": 0, "CLASSIFICATION_TYPE": "U", "NORAD_CAT_ID": 41860, "ELEMENT_SET_NO": 999, "REV_AT_EPOCH": 5641, "BSTAR": 0, "MEAN_MOTION_DOT": 1e-07, "MEAN_MOTION_DDOT": 0}, "tle": {"line1": "1 41860U 16069B   25343.13262648  .00000010  00000+0  00000+0 0  9999", "line2": "2 41860  55.3778 106.3455 0002187  30.0277 329.9496  1.70474546 56413"}}, "geometry": {"type": "Point", "coordinates": [-130.67928625249456, 50.545419717184686]}}, {"type": "Feature", "properties": {"norad_id": 41861, "name": "GSAT0213 (GALILEO 17)", "group": "gnss", "lat": -48.024452444393425, "lon": -23.582753297309072, "alt_km": 23222.278664029614, "timestamp": "2025-12-09T21:34:11.649924+00:00", "meta": {"OBJECT_NAME": "GSAT0213 (GALILEO 17)", "OBJECT_ID": "2016-069C", "EPOCH": "2025-12-08T21:55:35.814144", "MEAN_MOTION": 1.70474823, "ECCENTRICITY": 0.00022753, "INCLINATION": 55.38, "RA_OF_ASC_NODE": 106.3592, "ARG_OF_PERICENTER": 283.5203, "MEAN_ANOMALY": 76.4183, "EPHEMERIS_TYPE": 0, "CLASSIFICATION_TYPE": "U", "NORAD_CAT_ID": 41861, "ELEMENT_SET_NO": 999, "REV_AT_EPOCH": 5627, "BSTAR": 0, "MEAN_MOTION_DOT": 1e-07, "MEAN_MOTION_DDOT": 0}, "tle": {"line1": "1 41861U 16069C   25342.91360896  .00000010  00000+0  00000+0 0  9999", "line2": "2 41861  55.3800 106.3592 0002275 283.5203  76.4183  1.70474823 56273"}}, "geometry": {"type": "Point", "coordinates": [-23.582753297309072, -48.024452444393425]}}, {"type": "Feature", "properties": {"norad_id": 41862, "name": "GSAT0214 (GALILEO 18)", "group": "gnss", "lat": 20.34043103297852, "lon": -88.50947872463267, "alt_km": 23222.314359655462, "timestamp": "2025-12-09T21:34:11.649935+00:00", "meta": {"OBJECT_NAME": "GSAT0214 (GALILEO 18)", "OBJECT_ID": "2016-069D", "EPOCH": "2025-12-07T21:16:28.160256", "MEAN_MOTION": 1.70474622, "ECCENTRICITY": 0.00012492, "INCLINATION": 55.3777, "RA_OF_ASC_NODE": 106.3805, "ARG_OF_PERICENTER": 290.0949, "MEAN_ANOMALY": 69.8506, "EPHEMERIS_TYPE": 0, "CLASSIFICATION_TYPE": "U", "NORAD_CAT_ID": 41862, "ELEMENT_SET_NO": 999, "REV_AT_EPOCH": 5638, "BSTAR": 0, "MEAN_MOTION_DOT": 8e-08, "MEAN_MOTION_DDOT": 0}, "tle": {"line1": "1 41862U 16069D   25341.88643704  .00000008  00000+0  00000+0 0  9994", "line2": "2 41862  55.3777 106.3805 0001249 290.0949  69.8506  1.70474622 56388"}}, "geometry": {"type": "Point", "coordinates": [-88.50947872463267, 20.34043103297852]}}, {"type": "Feature", "properties": {"norad_id": 42709, "name": "SES-15 (WAAS/PRN 133)", "group": "gnss", "lat": -0.03756292087339625, "lon": -86.74618819608294, "alt_km": 35785.81318964517, "timestamp": "2025-12-09T21:34:11.649947+00:00", "meta": {"OBJECT_NAME": "SES-15 (WAAS/PRN 133)", "OBJECT_ID": "2017-026A", "EPOCH": "2025-12-09T14:35:18.298752", "MEAN_MOTION": 1.00266139, "ECCENTRICITY": 4.652e-05, "INCLINATION": 0.0199, "RA_OF_ASC_NODE": 344.6898, "ARG_OF_PERICENTER": 309.5909, "MEAN_ANOMALY": 233.9751, "EPHEMERIS_TYPE": 0, "CLASSIFICATION_TYPE": "U", "NORAD_CAT_ID": 42709, "ELEMENT_SET_NO": 999, "REV_AT_EPOCH": 553, "BSTAR": 0, "MEAN_MOTION_DOT": 6.3e-07, "MEAN_MOTION_DDOT": 0}, "tle": {"line1": "1 42709U 17026A   25343.60785068  .00000063  00000+0  00000+0 0  9992", "line2": "2 42709   0.0199 344.6898 0000465 309.5909 233.9751  1.00266139  5536"}}, "geometry": {"type": "Point", "coordinates": [-86.74618819608294, -0.03756292087339625]}}]}